{"type": "FeatureCollection", "features": [ {"type": "Feature", "properties": {"norad_id": 66449, "name": "STARLINK-34720", "group": "last-30-days", "lat": 18.70603157323007, "lon": -117.00943210888704, "alt_km": 412.4998224231067, "timestamp": "2025-12-06T09:34:15.698536+00:00", "meta": {"OBJECT_NAME": "STARLINK-34720", "OBJECT_ID": "2025-259AD", "EPOCH": "2025-12-05T14:22:12.017280", "MEAN_MOTION": 15.50652687, "ECCENTRICITY": 0.00026732, "INCLINATION": 43.0003, "RA_OF_ASC_NODE": 88.9793, "ARG_OF_PERICENTER": 286.3201, "MEAN_ANOMALY": 73.7365, "EPHEMERIS_TYPE": 0, "CLASSIFICATION_TYPE": "U", "NORAD_CAT_ID": 66449, "ELEMENT_SET_NO": 999, "REV_AT_EPOCH": 495, "BSTAR": 0.0026197763, "MEAN_MOTION_DOT": 0.00156885, "MEAN_MOTION_DDOT": 0}, "tle": {"line1": "1 66449U 25259AD  25339.59875020  .00156885  00000+0  26198-2 0  9990", "line2": "2 66449  43.0003  88.9793 0002673 286.3201  73.7365 15.50652687  4959"}}, "geometry": {"type": "Point", "coordinates": [-117.00943210888704, 18.70603157323007]}}, {"type": "Feature", "properties": {"norad_id": 66450, "name": "STARLINK-35334", "group": "last-30-days", "lat": 17.600661677739716, "lon": -115.61119299345238, "alt_km": 412.1230058743231, "timestamp": "2025-12-06T09:34:15.698546+00:00", "meta": {"OBJECT_NAME": "STARLINK-35334", "OBJECT_ID": "2025-259AE", "EPOCH": "2025-12-05T14:21:42.452928", "MEAN_MOTION": 15.5061647, "ECCENTRICITY": 0.00012308, "INCLINATION": 43.0001, "RA_OF_ASC_NODE": 88.9756, "ARG_OF_PERICENTER": 275.9694, "MEAN_ANOMALY": 84.1026, "EPHEMERIS_TYPE": 0, "CLASSIFICATION_TYPE": "U", "NORAD_CAT_ID": 66450, "ELEMENT_SET_NO": 999, "REV_AT_EPOCH": 506, "BSTAR": 0.0018804416, "MEAN_MOTION_DOT": 0.00111711, "MEAN_MOTION_DDOT": 0}, "tle": {"line1": "1 66450U 25259AE  25339.59840802  .00111711  00000+0  18804-2 0  9996", "line2": "2 66450  43.0001  88.9756 0001230 275.9694  84.1026 15.50616470  5069"}}, "geometry": {"type": "Point", "coordinates": [-115.61119299345238, 17.600661677739716]}}, {"type": "Feature", "properties": {"norad_id": 66454, "name": "VIASAT-3 F2", "group": "last-30-days", "lat": 2.5389623359541695, "lon": 85.94510412227643, "alt_km": 12838.769085951171, "timestamp": "2025-12-06T09:34:15.698559+00:00", "meta": {"OBJECT_NAME": "VIASAT-3 F2", "OBJECT_ID": "2025-261A", "EPOCH": "2025-12-04T21:51:56.064384", "MEAN_MOTION": 2.28030055, "ECCENTRICITY": 0.23396731, "INCLINATION": 5.5696, "RA_OF_ASC_NODE": 293.0418, "ARG_OF_PERICENTER": 184.3884, "MEAN_ANOMALY": 199.1368, "EPHEMERIS_TYPE": 0, "CLASSIFICATION_TYPE": "U", "NORAD_CAT_ID": 66454, "ELEMENT_SET_NO": 999, "REV_AT_EPOCH": 47, "BSTAR": 0, "MEAN_MOTION_DOT": -6.1e-07, "MEAN_MOTION_DDOT": 0}, "tle": {"line1": "1 66454U 25261A   25338.91106556 -.00000061  00000+0  00000+0 0  9991", "line2": "2 66454   5.5696 293.0418 2339673 184.3884 199.1368  2.28030055   477"}}, "geometry": {"type": "Point", "coordinates": [85.94510412227643, 2.5389623359541695]}}, {"type": "Feature", "properties": {"norad_id": 66455, "name": "ATLAS 5 CENTAUR R/B", "group": "last-30-days", "lat": 3.6270293452353704, "lon": 76.3619131713363, "alt_km": 13223.773999063025, "timestamp": "2025-12-06T09:34:15.698571+00:00", "meta": {"OBJECT_NAME": "ATLAS 5 CENTAUR R/B", "OBJECT_ID": "2025-261B", "EPOCH": "2025-12-05T18:35:15.382176", "MEAN_MOTION": 2.28259357, "ECCENTRICITY": 0.23295805, "INCLINATION": 6.1548, "RA_OF_ASC_NODE": 292.3127, "ARG_OF_PERICENTER": 185.0842, "MEAN_ANOMALY": 181.1565, "EPHEMERIS_TYPE": 0, "CLASSIFICATION_TYPE": "U", "NORAD_CAT_ID": 66455, "ELEMENT_SET_NO": 999, "REV_AT_EPOCH": 49, "BSTAR": 0, "MEAN_MOTION_DOT": -6.7e-07, "MEAN_MOTION_DDOT": 0}, "tle": {"line1": "1 66455U 25261B   25339.77448359 -.00000067  00000+0  00000+0 0  9993", "line2": "2 66455   6.1548 292.3127 2329580 185.0842 181.1565  2.28259357   498"}}, "geometry": {"type": "Point", "coordinates": [76.3619131713363, 3.6270293452353704]}}, {"type": "Feature", "properties": {"norad_id": 66456, "name": "STARLINK-35643", "group": "last-30-days", "lat": -6.948910855511398, "lon": -64.27019098756722, "alt_km": 418.69767548104846, "timestamp": "2025-12-06T09:34:15.698582+00:00", "meta": {"OBJECT_NAME": "STARLINK-35643", "OBJECT_ID": "2025-262A", "EPOCH": "2025-12-05T22:00:03.000096", "MEAN_MOTION": 15.50986494, "ECCENTRICITY": 0.00016089, "INCLINATION": 43.0002, "RA_OF_ASC_NODE": 111.0334, "ARG_OF_PERICENTER": 269.1005, "MEAN_ANOMALY": 107.3654, "EPHEMERIS_TYPE": 0, "CLASSIFICATION_TYPE": "U", "NORAD_CAT_ID": 66456, "ELEMENT_SET_NO": 999, "REV_AT_EPOCH": 454, "BSTAR": -0.026937248, "MEAN_MOTION_DOT": -0.01433956, "MEAN_MOTION_DDOT": 0}, "tle": {"line1": "1 66456U 25262A   25339.91670139 -.01433956  00000+0 -26937-1 0  9992", "line2": "2 66456  43.0002 111.0334 0001608 269.1005 107.3654 15.50986494  4549"}}, "geometry": {"type": "Point", "coordinates": [-64.27019098756722, -6.948910855511398]}}, {"type": "Feature", "properties": {"norad_id": 66457, "name": "STARLINK-35466", "group": "last-30-days", "lat": -9.973543947788142, "lon": -60.91936422070269, "alt_km": 416.11316714311033, "timestamp": "2025-12-06T09:34:15.698592+00:00", "meta": {"OBJECT_NAME": "STARLINK-35466", "OBJECT_ID": "2025-262B", "EPOCH": "2025-12-05T22:00:03.000096", "MEAN_MOTION": 15.50601947, "ECCENTRICITY": 0.00016706, "INCLINATION": 43.0002, "RA_OF_ASC_NODE": 111.0236, "ARG_OF_PERICENTER": 282.6245, "MEAN_ANOMALY": 97.7313, "EPHEMERIS_TYPE": 0, "CLASSIFICATION_TYPE": "U", "NORAD_CAT_ID": 66457, "ELEMENT_SET_NO": 999, "REV_AT_EPOCH": 454, "BSTAR": -0.00090534048, "MEAN_MOTION_DOT": -0.00053139, "MEAN_MOTION_DDOT": 0}, "tle": {"line1": "1 66457U 25262B   25339.91670139 -.00053139  00000+0 -90534-3 0  9999", "line2": "2 66457  43.0002 111.0236 0001670 282.6245  97.7313 15.50601947  4547"}}, "geometry": {"type": "Point", "coordinates": [-60.91936422070269, -9.973543947788142]}}, {"type": "Feature", "properties": {"norad_id": 66458, "name": "STARLINK-35684", "group": "last-30-days", "lat": -8.705901066343767, "lon": -62.33449146110129, "alt_km": 415.4572294104846, "timestamp": "2025-12-06T09:34:15.698602+00:00", "meta": {"OBJECT_NAME": "STARLINK-35684", "OBJECT_ID": "2025-262C", "EPOCH": "2025-12-05T22:00:03.000096", "MEAN_MOTION": 15.50539781, "ECCENTRICITY": 0.00016936, "INCLINATION": 43.0001, "RA_OF_ASC_NODE": 111.028, "ARG_OF_PERICENTER": 265.5216, "MEAN_ANOMALY": 112.9344, "EPHEMERIS_TYPE": 0, "CLASSIFICATION_TYPE": "U", "NORAD_CAT_ID": 66458, "ELEMENT_SET_NO": 999, "REV_AT_EPOCH": 454, "BSTAR": 0.0014949398, "MEAN_MOTION_DOT": 0.00088231, "MEAN_MOTION_DDOT": 0}, "tle": {"line1": "1 66458U 25262C   25339.91670139  .00088231  00000+0  14949-2 0  9994", "line2": "2 66458  43.0001 111.0280 0001693 265.5216 112.9344 15.50539781  4549"}}, "geometry": {"type": "Point", "coordinates": [-62.33449146110129, -8.705901066343767]}}, {"type": "Feature", "properties": {"norad_id": 66459, "name": "STARLINK-35449", "group": "last-30-days", "lat": -11.247699103611595, "lon": -59.479453066298895, "alt_km": 416.1655845205905, "timestamp": "2025-12-06T09:34:15.698616+00:00", "meta": {"OBJECT_NAME": "STARLINK-35449", "OBJECT_ID": "2025-262D", "EPOCH": "2025-12-05T22:00:03.000096", "MEAN_MOTION": 15.50599055, "ECCENTRICITY": 0.00017436, "INCLINATION": 43.0006, "RA_OF_ASC_NODE": 111.0187, "ARG_OF_PERICENTER": 278.5359, "MEAN_ANOMALY": 103.7432, "EPHEMERIS_TYPE": 0, "CLASSIFICATION_TYPE": "U", "NORAD_CAT_ID": 66459, "ELEMENT_SET_NO": 999, "REV_AT_EPOCH": 454, "BSTAR": -0.0010879741, "MEAN_MOTION_DOT": -0.00063698, "MEAN_MOTION_DDOT": 0}, "tle": {"line1": "1 66459U 25262D   25339.91670139 -.00063698  00000+0 -10880-2 0  9997", "line2": "2 66459  43.0006 111.0187 0001743 278.5359 103.7432 15.50599055  4545"}}, "geometry": {"type": "Point", "coordinates": [-59.479453066298895, -11.247699103611595]}}, {"type": "Feature", "properties": {"norad_id": 66460, "name": "STARLINK-35424", "group": "last-30-days", "lat": -12.5214996278468, "lon": -58.01877976297386, "alt_km": 416.44099004663894, "timestamp": "2025-12-06T09:34:15.698626+00:00", "meta": {"OBJECT_NAME": "STARLINK-35424", "OBJECT_ID": "2025-262E", "EPOCH": "2025-12-05T22:00:03.000096", "MEAN_MOTION": 15.50616882, "ECCENTRICITY": 0.00013188, "INCLINATION": 43.0003, "RA_OF_ASC_NODE": 111.0138, "ARG_OF_PERICENTER": 286.0769, "MEAN_ANOMALY": 98.109, "EPHEMERIS_TYPE": 0, "CLASSIFICATION_TYPE": "U", "NORAD_CAT_ID": 66460, "ELEMENT_SET_NO": 999, "REV_AT_EPOCH": 454, "BSTAR": -0.0015717724, "MEAN_MOTION_DOT": -0.00091601, "MEAN_MOTION_DDOT": 0}, "tle": {"line1": "1 66460U 25262E   25339.91670139 -.00091601  00000+0 -15718-2 0  9999", "line2": "2 66460  43.0003 111.0138 0001318 286.0769  98.1090 15.50616882  4542"}}, "geometry": {"type": "Point", "coordinates": [-58.01877976297386, -12.5214996278468]}}, {"type": "Feature", "properties": {"norad_id": 66461, "name": "STARLINK-35132", "group": "last-30-days", "lat": -13.788875270438984, "lon": -56.54174113314116, "alt_km": 416.46156313288793, "timestamp": "2025-12-06T09:34:15.698636+00:00", "meta": {"OBJECT_NAME": "STARLINK-35132", "OBJECT_ID": "2025-262F", "EPOCH": "2025-12-05T22:00:03.000096", "MEAN_MOTION": 15.50622765, "ECCENTRICITY": 0.00011597, "INCLINATION": 43.0003, "RA_OF_ASC_NODE": 111.009, "ARG_OF_PERICENTER": 279.4567, "MEAN_ANOMALY": 106.647, "EPHEMERIS_TYPE": 0, "CLASSIFICATION_TYPE": "U", "NORAD_CAT_ID": 66461, "ELEMENT_SET_NO": 999, "REV_AT_EPOCH": 454, "BSTAR": -0.0017484593, "MEAN_MOTION_DOT": -0.00101749, "MEAN_MOTION_DDOT": 0}, "tle": {"line1": "1 66461U 25262F   25339.91670139 -.00101749  00000+0 -17485-2 0  9998", "line2": "2 66461  43.0003 111.0090 0001159 279.4567 106.6470 15.50622765  4549"}}, "geometry": {"type": "Point", "coordinates": [-56.54174113314116, -13.788875270438984]}}]}